{"fetched_at":"2026-03-30T06:02:59Z","count":15439,"tles":[{"name":"STARLINK-32151","line1":"1 60299U 24132X   26087.87095166  .00000295  00000+0  22074-4 0  9997","line2":"2 60299  53.1610 294.8888 0001109  94.8100 265.3028 15.30194651 94895","category":"Starlink"}]}