{
  "norad_id": 60299,
  "name": "STARLINK-32151",
  "history": [
    {
      "epoch": "2026-03-28T20:54:10.223424Z",
      "apogee_km": 475.99114766507046,
      "perigee_km": 474.4709335663001,
      "latitude_deg": 4.882890815331894e-05,
      "longitude_deg": 155.06105373480017,
      "height_km": 476.1931730885409,
      "semi_major_axis_km": 6853.368040615685,
      "eccentricity": 0.00011091,
      "inclination_deg": 53.161,
      "raan_deg": 294.8888,
      "arg_perigee_deg": 94.81,
      "mean_anomaly_deg": 265.3028,
      "mean_motion_rev_day": 15.30194651
    }
  ]
}